[{"OBJECT_NAME":"HYPERFIELD-1A","OBJECT_ID":"2024-149CY","EPOCH":"2026-03-09T18:21:25.814304","MEAN_MOTION":15.29681349,"ECCENTRICITY":0.00038648,"INCLINATION":97.3842,"RA_OF_ASC_NODE":149.5066,"ARG_OF_PERICENTER":313.7844,"MEAN_ANOMALY":46.3076,"EPHEMERIS_TYPE":0,"CLASSIFICATION_TYPE":"U","NORAD_CAT_ID":60562,"ELEMENT_SET_NO":999,"REV_AT_EPOCH":8683,"BSTAR":0.00030052114,"MEAN_MOTION_DOT":8.569e-5,"MEAN_MOTION_DDOT":0},{"OBJECT_NAME":"STARLINK-34850","OBJECT_ID":"2025-195C","EPOCH":"2026-03-09T17:08:09.142080","MEAN_MOTION":15.30232482,"ECCENTRICITY":0.00010484,"INCLINATION":53.1596,"RA_OF_ASC_NODE":258.3347,"ARG_OF_PERICENTER":68.169,"MEAN_ANOMALY":291.9422,"EPHEMERIS_TYPE":0,"CLASSIFICATION_TYPE":"U","NORAD_CAT_ID":65460,"ELEMENT_SET_NO":999,"REV_AT_EPOCH":2999,"BSTAR":0.0009431071,"MEAN_MOTION_DOT":0.00027705,"MEAN_MOTION_DDOT":0}]
